NORAD_CAT_ID,OBJECT_NAME,OBJECT_TYPE,EPOCH,MEAN_MOTION,ECCENTRICITY,INCLINATION,RA_OF_ASC_NODE,ARG_OF_PERICENTER,MEAN_ANOMALY,BSTAR,MEAN_MOTION_DOT,MEAN_MOTION_DDOT,TLE_LINE0,TLE_LINE1,TLE_LINE2,SEMIMAJOR_AXIS,PERIOD,APOGEE,PERIGEE,DECAYED
55640.0,STARLINK-5069,PAYLOAD,2024-01-17 22:31:54,14.9832541,0.0002581,70.0014,355.491,246.4002,113.6886,2.7834e-05,2.39e-06,0.0,0 STARLINK-5069,1 55640U 23021N   24017.93882981  .00000239  00000-0  27834-4 0  9992,2 55640  70.0014 355.4910 0002581 246.4002 113.6886 14.98325410 51696,6950.207,96.107,573.866,570.278,0.0
55640.0,STARLINK-5069,PAYLOAD,2024-01-18 01:44:11,14.98324231,0.0002624,70.0013,355.1547,246.8598,113.2284,8.0734e-06,3e-08,0.0,0 STARLINK-5069,1 55640U 23021N   24018.07235141  .00000003  00000-0  80734-5 0  9996,2 55640  70.0013 355.1547 0002624 246.8598 113.2284 14.98324231 51418,6950.211,96.107,573.899,570.252,0.0
55640.0,STARLINK-5069,PAYLOAD,2024-01-18 08:08:43,14.9832374,0.0002703,70.001,354.4799,260.5128,99.5725,6.984e-07,-8.5e-07,0.0,0 STARLINK-5069,1 55640U 23021N   24018.33939337 -.00000085  00000-0  69840-6 0  9990,2 55640  70.0010 354.4799 0002703 260.5128  99.5725 14.98323740 51753,6950.212,96.107,573.956,570.199,0.0
55640.0,STARLINK-5069,PAYLOAD,2024-01-18 22:33:55,14.98331557,0.0002829,70.0006,352.9649,261.661,98.4229,-2.1174e-06,-1.18e-06,0.0,0 STARLINK-5069,1 55640U 23021N   24018.94022865 -.00000118  00000-0 -21174-5 0  9991,2 55640  70.0006 352.9649 0002829 261.6610  98.4229 14.98331557 51844,6950.188,96.107,574.019,570.087,0.0
55640.0,STARLINK-5069,PAYLOAD,2024-01-19 01:46:11,14.98333343,0.0002962,70.0003,352.6279,263.3995,96.6827,-2.5561e-05,-3.98e-06,0.0,0 STARLINK-5069,1 55640U 23021N   24019.07374803 -.00000398  00000-0 -25561-4 0  9991,2 55640  70.0003 352.6279 0002962 263.3995  96.6827 14.98333343 51568,6950.183,96.107,574.106,569.989,0.0
55640.0,STARLINK-5069,PAYLOAD,2024-01-19 08:10:43,14.98334879,0.000279,70.001,351.9557,261.5706,98.5137,4.8997e-05,4.92e-06,0.0,0 STARLINK-5069,1 55640U 23021N   24019.34078441  .00000492  00000-0  48997-4 0  9991,2 55640  70.0010 351.9557 0002790 261.5706  98.5137 14.98334879 51904,6950.178,96.107,573.982,570.104,0.0
55640.0,STARLINK-5069,PAYLOAD,2024-01-19 22:35:56,14.98328879,0.0002791,70.001,350.4394,265.3375,94.7465,4.2913e-05,4.19e-06,0.0,0 STARLINK-5069,1 55640U 23021N   24019.94162731  .00000419  00000-0  42913-4 0  9994,2 55640  70.0010 350.4394 0002791 265.3375  94.7465 14.98328879 51996,6950.196,96.107,574.001,570.122,0.0
55640.0,STARLINK-5069,PAYLOAD,2024-01-20 01:48:12,14.98329022,0.0002798,70.001,350.1027,265.0295,95.0544,4.1721e-05,4.05e-06,0.0,0 STARLINK-5069,1 55640U 23021N   24020.07514721  .00000405  00000-0  41721-4 0  9991,2 55640  70.0010 350.1027 0002798 265.0295  95.0544 14.98329022 51714,6950.196,96.107,574.006,570.116,0.0
55640.0,STARLINK-5069,PAYLOAD,2024-01-20 08:12:44,14.98333521,0.0002739,70.0011,349.4292,264.3216,95.763,9.1051e-05,9.94e-06,0.0,0 STARLINK-5069,1 55640U 23021N   24020.34218273  .00000994  00000-0  91051-4 0  9998,2 55640  70.0011 349.4292 0002739 264.3216  95.7630 14.98333521 52050,6950.182,96.107,573.951,570.143,0.0
55640.0,STARLINK-5069,PAYLOAD,2024-01-20 22:37:57,14.98328912,0.0002483,70.0018,347.9144,259.1117,100.9763,-3.2962e-05,-4.86e-06,0.0,0 STARLINK-5069,1 55640U 23021N   24020.94302854 -.00000486  00000-0 -32962-4 0  9997,2 55640  70.0018 347.9144 0002483 259.1117 100.9763 14.98328912 52148,6950.196,96.107,573.787,570.336,0.0
55640.0,STARLINK-5069,PAYLOAD,2024-01-21 01:50:13,14.9832822,0.0002501,70.0017,347.5778,259.2009,100.8868,-4.1972e-05,-5.94e-06,0.0,0 STARLINK-5069,1 55640U 23021N   24021.07654922 -.00000594  00000-0 -41972-4 0  9999,2 55640  70.0017 347.5778 0002501 259.2009 100.8868 14.98328220 51863,6950.198,96.107,573.802,570.325,0.0
55640.0,STARLINK-5069,PAYLOAD,2024-01-21 06:38:38,14.98328612,0.0002488,70.0018,347.073,259.7347,100.3532,-3.5033e-05,-5.11e-06,0.0,0 STARLINK-5069,1 55640U 23021N   24021.27682899 -.00000511  00000-0 -35033-4 0  9995,2 55640  70.0018 347.0730 0002488 259.7347 100.3532 14.98328612 52196,6950.197,96.107,573.791,570.333,0.0
55640.0,STARLINK-5069,PAYLOAD,2024-01-21 22:39:58,14.98333014,0.0002528,70.0017,345.3896,254.8508,105.2371,1.4248e-05,7.7e-07,0.0,0 STARLINK-5069,1 55640U 23021N   24021.94442343  .00000077  00000-0  14248-4 0  9997,2 55640  70.0017 345.3896 0002528 254.8508 105.2371 14.98333014 52297,6950.184,96.107,573.806,570.292,0.0
55640.0,STARLINK-5069,PAYLOAD,2024-01-22 03:28:22,14.98331711,0.0002578,70.0015,344.8846,253.476,106.6116,-1.0319e-06,-1.05e-06,0.0,0 STARLINK-5069,1 55640U 23021N   24022.14470426 -.00000105  00000-0 -10319-5 0  9993,2 55640  70.0015 344.8846 0002578 253.4760 106.6116 14.98331711 52029,6950.188,96.107,573.844,570.261,0.0
55640.0,STARLINK-5069,PAYLOAD,2024-01-22 06:40:38,14.98333066,0.0002549,70.0016,344.5482,253.1215,106.9664,1.6712e-05,1.07e-06,0.0,0 STARLINK-5069,1 55640U 23021N   24022.27822276  .00000107  00000-0  16712-4 0  9993,2 55640  70.0016 344.5482 0002549 253.1215 106.9664 14.98333066 52344,6950.183,96.107,573.82,570.277,0.0
55640.0,STARLINK-5069,PAYLOAD,2024-01-22 22:41:59,14.98326978,0.0002557,70.0018,342.8666,247.4064,112.6825,1.1018e-05,3.9e-07,0.0,0 STARLINK-5069,1 55640U 23021N   24022.94582617  .00000039  00000-0  11018-4 0  9997,2 55640  70.0018 342.8666 0002557 247.4064 112.6825 14.98326978 52446,6950.202,96.107,573.844,570.29,0.0
55640.0,STARLINK-5069,PAYLOAD,2024-01-23 03:30:23,14.98326597,0.0002568,70.0019,342.3617,247.1417,112.9471,4.9389e-06,-3.4e-07,0.0,0 STARLINK-5069,1 55640U 23021N   24023.14610684 -.00000034  00000-0  49389-5 0  9995,2 55640  70.0019 342.3617 0002568 247.1417 112.9471 14.98326597 52176,6950.203,96.107,573.853,570.284,0.0
55640.0,STARLINK-5069,PAYLOAD,2024-01-23 06:42:39,14.98328334,0.0002547,70.0021,342.0256,244.6222,115.4674,2.5691e-05,2.14e-06,0.0,0 STARLINK-5069,1 55640U 23021N   24023.27962529  .00000214  00000-0  25691-4 0  9995,2 55640  70.0021 342.0256 0002547 244.6222 115.4674 14.98328334 52497,6950.198,96.107,573.833,570.293,0.0
55640.0,STARLINK-5069,PAYLOAD,2024-01-23 22:44:00,14.98330985,0.0002533,70.0025,340.3427,237.7968,122.2946,-2.1613e-06,-1.19e-06,0.0,0 STARLINK-5069,1 55640U 23021N   24023.94722396 -.00000119  00000-0 -21613-5 0  9992,2 55640  70.0025 340.3427 0002533 237.7968 122.2946 14.98330985 52591,6950.19,96.107,573.815,570.294,0.0
55640.0,STARLINK-5069,PAYLOAD,2024-01-24 03:32:24,14.98329439,0.0002557,70.0027,339.8376,237.1752,122.9161,-1.9135e-05,-3.21e-06,0.0,0 STARLINK-5069,1 55640U 23021N   24024.14750533 -.00000321  00000-0 -19135-4 0  9999,2 55640  70.0027 339.8376 0002557 237.1752 122.9161 14.98329439 52329,6950.195,96.107,573.837,570.282,0.0
55640.0,STARLINK-5069,PAYLOAD,2024-01-24 06:44:40,14.98329628,0.0002546,70.0026,339.501,238.466,121.6251,-1.6897e-05,-2.94e-06,0.0,0 STARLINK-5069,1 55640U 23021N   24024.28102535 -.00000294  00000-0 -16897-4 0  9998,2 55640  70.0026 339.5010 0002546 238.4660 121.6251 14.98329628 52641,6950.194,96.107,573.829,570.29,0.0
55640.0,STARLINK-5069,PAYLOAD,2024-01-24 22:46:01,14.98331247,0.000262,70.0023,337.8182,245.4393,114.6493,1.0667e-05,3.4e-07,0.0,0 STARLINK-5069,1 55640U 23021N   24024.94862310  .00000034  00000-0  10667-4 0  9994,2 55640  70.0023 337.8182 0002620 245.4393 114.6493 14.98331247 52744,6950.189,96.107,573.875,570.233,0.0
55640.0,STARLINK-5069,PAYLOAD,2024-01-25 03:34:25,14.98329794,0.000264,70.0022,337.3132,247.0583,113.0297,-8.3554e-06,-1.93e-06,0.0,0 STARLINK-5069,1 55640U 23021N   24025.14890448 -.00000193  00000-0 -83554-5 0  9994,2 55640  70.0022 337.3132 0002640 247.0583 113.0297 14.98329794 52473,6950.194,96.107,573.893,570.224,0.0
55640.0,STARLINK-5069,PAYLOAD,2024-01-25 06:46:41,14.98329208,0.0002639,70.002,336.976,251.0046,109.0827,-1.4944e-05,-2.71e-06,0.0,0 STARLINK-5069,1 55640U 23021N   24025.28242525 -.00000271  00000-0 -14944-4 0  9999,2 55640  70.0020 336.9760 0002639 251.0046 109.0827 14.98329208 52799,6950.195,96.107,573.894,570.226,0.0
55640.0,STARLINK-5069,PAYLOAD,2024-01-25 22:48:02,14.9833018,0.0002736,70.0018,335.2924,251.4305,108.6557,-1.2819e-05,-2.46e-06,0.0,0 STARLINK-5069,1 55640U 23021N   24025.95002456 -.00000246  00000-0 -12819-4 0  9991,2 55640  70.0018 335.2924 0002736 251.4305 108.6557 14.98330180 52897,6950.192,96.107,573.959,570.156,0.0
55640.0,STARLINK-5069,PAYLOAD,2024-01-26 03:36:26,14.98331574,0.0002704,70.0019,334.7875,249.8223,110.2646,7.2905e-06,-6e-08,0.0,0 STARLINK-5069,1 55640U 23021N   24026.15030298 -.00000006  00000-0  72905-5 0  9995,2 55640  70.0019 334.7875 0002704 249.8223 110.2646 14.98331574 52629,6950.188,96.107,573.932,570.174,0.0
55640.0,STARLINK-5069,PAYLOAD,2024-01-26 06:48:42,14.98332388,0.0002689,70.0019,334.4508,250.5605,109.5263,1.692e-05,1.09e-06,0.0,0 STARLINK-5069,1 55640U 23021N   24026.28382214  .00000109  00000-0  16920-4 0  9994,2 55640  70.0019 334.4508 0002689 250.5605 109.5263 14.98332388 52949,6950.186,96.107,573.919,570.182,0.0
55640.0,STARLINK-5069,PAYLOAD,2024-01-27 03:38:27,14.98328803,0.0002573,70.0021,332.2625,249.5299,110.5584,1.396e-05,7.4e-07,0.0,0 STARLINK-5069,1 55640U 23021N   24027.15170425  .00000074  00000-0  13960-4 0  9992,2 55640  70.0021 332.2625 0002573 249.5299 110.5584 14.98328803 52773,6950.197,96.107,573.85,570.273,0.0
55640.0,STARLINK-5069,PAYLOAD,2024-01-27 06:50:43,14.98329347,0.0002536,70.0021,331.9256,251.8284,108.2599,2.0541e-05,1.52e-06,0.0,0 STARLINK-5069,1 55640U 23021N   24027.28522396  .00000152  00000-0  20541-4 0  9994,2 55640  70.0021 331.9256 0002536 251.8284 108.2599 14.98329347 53098,6950.195,96.107,573.822,570.297,0.0
55640.0,STARLINK-5069,PAYLOAD,2024-01-27 21:15:55,14.98329879,0.0002531,70.0023,330.4111,248.3967,111.6923,-2.2222e-06,-1.19e-06,0.0,0 STARLINK-5069,1 55640U 23021N   24027.88606407 -.00000119  00000-0 -22222-5 0  9990,2 55640  70.0023 330.4111 0002531 248.3967 111.6923 14.98329879 53187,6950.193,96.107,573.817,570.299,0.0
